{
  "type": "FeatureCollection",
  "features": [
    {
      "type": "Feature",
      "properties": {
        "norad_id": 34079,
        "name": "IRIDIUM 33 DEB",
        "group": "iridium-33-debris",
        "lat": 34.25969607963224,
        "lon": -171.10334989850628,
        "alt_km": 619.0586768651337,
        "timestamp": "2025-12-06T18:50:10.554250+00:00",
        "meta_object_name": "IRIDIUM 33 DEB",
        "meta_object_id": "1997-051CN",
        "meta_epoch": "2025-12-06T02:07:07.056768",
        "meta_mean_motion": 14.83267181,
        "meta_eccentricity": 0.00063789,
        "meta_inclination": 86.377,
        "meta_ra_of_asc_node": 11.6867,
        "meta_arg_of_pericenter": 28.4857,
        "meta_mean_anomaly": 359.9327,
        "meta_ephemeris_type": 0,
        "meta_classification_type": "U",
        "meta_norad_cat_id": 34079,
        "meta_element_set_no": 999,
        "meta_rev_at_epoch": 88879,
        "meta_bstar": 0.0024134551,
        "meta_mean_motion_dot": 0.000198,
        "meta_mean_motion_ddot": 0,
        "tle_line1": "1 34079U 97051CN  25340.08827612  .00019800  00000+0  24135-2 0  9997",
        "tle_line2": "2 34079  86.3770  11.6867 0006378  28.4857 359.9327 14.83267181888792"
      },
      "geometry": {
        "type": "Point",
        "coordinates": [
          -171.10334989850628,
          34.25969607963224
        ]
      }
    },
    {
      "type": "Feature",
      "properties": {
        "norad_id": 34088,
        "name": "IRIDIUM 33 DEB",
        "group": "iridium-33-debris",
        "lat": 70.40739996689686,
        "lon": 43.690511950812784,
        "alt_km": 590.495292129337,
        "timestamp": "2025-12-06T18:50:10.554261+00:00",
        "meta_object_name": "IRIDIUM 33 DEB",
        "meta_object_id": "1997-051CX",
        "meta_epoch": "2025-12-06T02:30:13.058784",
        "meta_mean_motion": 14.90896268,
        "meta_eccentricity": 0.00051753,
        "meta_inclination": 86.3851,
        "meta_ra_of_asc_node": 33.7722,
        "meta_arg_of_pericenter": 201.3687,
        "meta_mean_anomaly": 179.2709,
        "meta_ephemeris_type": 0,
        "meta_classification_type": "U",
        "meta_norad_cat_id": 34088,
        "meta_element_set_no": 999,
        "meta_rev_at_epoch": 88643,
        "meta_bstar": 0.0039591106,
        "meta_mean_motion_dot": 0.00039232,
        "meta_mean_motion_ddot": 0,
        "tle_line1": "1 34088U 97051CX  25340.10431781  .00039232  00000+0  39591-2 0  9991",
        "tle_line2": "2 34088  86.3851  33.7722 0005175 201.3687 179.2709 14.90896268886432"
      },
      "geometry": {
        "type": "Point",
        "coordinates": [
          43.690511950812784,
          70.40739996689686
        ]
      }
    },
    {
      "type": "Feature",
      "properties": {
        "norad_id": 34091,
        "name": "IRIDIUM 33 DEB",
        "group": "iridium-33-debris",
        "lat": 75.46771223404662,
        "lon": -124.72606555177333,
        "alt_km": 638.7270335394314,
        "timestamp": "2025-12-06T18:50:10.554272+00:00",
        "meta_object_name": "IRIDIUM 33 DEB",
        "meta_object_id": "1997-051DA",
        "meta_epoch": "2025-12-06T05:23:45.235968",
        "meta_mean_motion": 14.81055603,
        "meta_eccentricity": 0.00332526,
        "meta_inclination": 86.3425,
        "meta_ra_of_asc_node": 69.816,
        "meta_arg_of_pericenter": 316.6294,
        "meta_mean_anomaly": 43.2311,
        "meta_ephemeris_type": 0,
        "meta_classification_type": "U",
        "meta_norad_cat_id": 34091,
        "meta_element_set_no": 999,
        "meta_rev_at_epoch": 87770,
        "meta_bstar": 0.0080585936,
        "meta_mean_motion_dot": 0.00063608,
        "meta_mean_motion_ddot": 0,
        "tle_line1": "1 34091U 97051DA  25340.22482912  .00063608  00000+0  80586-2 0  9994",
        "tle_line2": "2 34091  86.3425  69.8160 0033252 316.6294  43.2311 14.81055603877709"
      },
      "geometry": {
        "type": "Point",
        "coordinates": [
          -124.72606555177333,
          75.46771223404662
        ]
      }
    },
    {
      "type": "Feature",
      "properties": {
        "norad_id": 34097,
        "name": "IRIDIUM 33 DEB",
        "group": "iridium-33-debris",
        "lat": -85.94686444380869,
        "lon": -65.67562797075179,
        "alt_km": 803.5750197353509,
        "timestamp": "2025-12-06T18:50:10.554282+00:00",
        "meta_object_name": "IRIDIUM 33 DEB",
        "meta_object_id": "1997-051DG",
        "meta_epoch": "2025-12-06T00:50:01.331232",
        "meta_mean_motion": 14.34697204,
        "meta_eccentricity": 0.00833635,
        "meta_inclination": 86.2,
        "meta_ra_of_asc_node": 4.3673,
        "meta_arg_of_pericenter": 23.9701,
        "meta_mean_anomaly": 336.5339,
        "meta_ephemeris_type": 0,
        "meta_classification_type": "U",
        "meta_norad_cat_id": 34097,
        "meta_element_set_no": 999,
        "meta_rev_at_epoch": 87023,
        "meta_bstar": 0.002193681,
        "meta_mean_motion_dot": 6.476e-05,
        "meta_mean_motion_ddot": 0,
        "tle_line1": "1 34097U 97051DG  25340.03473763  .00006476  00000+0  21937-2 0  9998",
        "tle_line2": "2 34097  86.2000   4.3673 0083363  23.9701 336.5339 14.34697204870231"
      },
      "geometry": {
        "type": "Point",
        "coordinates": [
          -65.67562797075179,
          -85.94686444380869
        ]
      }
    },
    {
      "type": "Feature",
      "properties": {
        "norad_id": 34145,
        "name": "IRIDIUM 33 DEB",
        "group": "iridium-33-debris",
        "lat": 19.92296064587771,
        "lon": -23.44471858035697,
        "alt_km": 752.8458726487797,
        "timestamp": "2025-12-06T18:50:10.554293+00:00",
        "meta_object_name": "IRIDIUM 33 DEB",
        "meta_object_id": "1997-051DY",
        "meta_epoch": "2025-12-05T17:45:58.616928",
        "meta_mean_motion": 14.42213658,
        "meta_eccentricity": 0.00554485,
        "meta_inclination": 86.2109,
        "meta_ra_of_asc_node": 335.644,
        "meta_arg_of_pericenter": 116.0752,
        "meta_mean_anomaly": 244.6171,
        "meta_ephemeris_type": 0,
        "meta_classification_type": "U",
        "meta_norad_cat_id": 34145,
        "meta_element_set_no": 999,
        "meta_rev_at_epoch": 87537,
        "meta_bstar": 0.0019099545,
        "meta_mean_motion_dot": 6.43e-05,
        "meta_mean_motion_ddot": 0,
        "tle_line1": "1 34145U 97051DY  25339.74026177  .00006430  00000+0  19100-2 0  9990",
        "tle_line2": "2 34145  86.2109 335.6440 0055448 116.0752 244.6171 14.42213658875379"
      },
      "geometry": {
        "type": "Point",
        "coordinates": [
          -23.44471858035697,
          19.92296064587771
        ]
      }
    },
    {
      "type": "Feature",
      "properties": {
        "norad_id": 34146,
        "name": "IRIDIUM 33 DEB",
        "group": "iridium-33-debris",
        "lat": -53.520607550066366,
        "lon": 177.47492288640007,
        "alt_km": 718.4725496674218,
        "timestamp": "2025-12-06T18:50:10.554303+00:00",
        "meta_object_name": "IRIDIUM 33 DEB",
        "meta_object_id": "1997-051DZ",
        "meta_epoch": "2025-12-06T07:52:36.890400",
        "meta_mean_motion": 14.48981713,
        "meta_eccentricity": 0.00250574,
        "meta_inclination": 86.2831,
        "meta_ra_of_asc_node": 352.6328,
        "meta_arg_of_pericenter": 244.5586,
        "meta_mean_anomaly": 128.6298,
        "meta_ephemeris_type": 0,
        "meta_classification_type": "U",
        "meta_norad_cat_id": 34146,
        "meta_element_set_no": 999,
        "meta_rev_at_epoch": 88014,
        "meta_bstar": 0.0017363381,
        "meta_mean_motion_dot": 6.627e-05,
        "meta_mean_motion_ddot": 0,
        "tle_line1": "1 34146U 97051DZ  25340.32820475  .00006627  00000+0  17363-2 0  9997",
        "tle_line2": "2 34146  86.2831 352.6328 0025057 244.5586 128.6298 14.48981713880143"
      },
      "geometry": {
        "type": "Point",
        "coordinates": [
          177.47492288640007,
          -53.520607550066366
        ]
      }
    },
    {
      "type": "Feature",
      "properties": {
        "norad_id": 34159,
        "name": "IRIDIUM 33 DEB",
        "group": "iridium-33-debris",
        "lat": 6.082273025876726,
        "lon": -129.60878151189542,
        "alt_km": 779.0167737067113,
        "timestamp": "2025-12-06T18:50:10.554314+00:00",
        "meta_object_name": "IRIDIUM 33 DEB",
        "meta_object_id": "1997-051EN",
        "meta_epoch": "2025-12-06T04:40:22.298592",
        "meta_mean_motion": 14.38468765,
        "meta_eccentricity": 0.00261971,
        "meta_inclination": 86.3518,
        "meta_ra_of_asc_node": 51.0322,
        "meta_arg_of_pericenter": 310.8429,
        "meta_mean_anomaly": 49.0498,
        "meta_ephemeris_type": 0,
        "meta_classification_type": "U",
        "meta_norad_cat_id": 34159,
        "meta_element_set_no": 999,
        "meta_rev_at_epoch": 87865,
        "meta_bstar": 0.00076720593,
        "meta_mean_motion_dot": 2.369e-05,
        "meta_mean_motion_ddot": 0,
        "tle_line1": "1 34159U 97051EN  25340.19470253  .00002369  00000+0  76721-3 0  9994",
        "tle_line2": "2 34159  86.3518  51.0322 0026197 310.8429  49.0498 14.38468765878650"
      },
      "geometry": {
        "type": "Point",
        "coordinates": [
          -129.60878151189542,
          6.082273025876726
        ]
      }
    }
  ]
}